NORAD_CAT_ID,OBJECT_NAME,OBJECT_TYPE,EPOCH,MEAN_MOTION,ECCENTRICITY,INCLINATION,RA_OF_ASC_NODE,ARG_OF_PERICENTER,MEAN_ANOMALY,BSTAR,MEAN_MOTION_DOT,MEAN_MOTION_DDOT,TLE_LINE0,TLE_LINE1,TLE_LINE2,SEMIMAJOR_AXIS,PERIOD,APOGEE,PERIGEE,DECAYED
53802.0,STARLINK-4726,PAYLOAD,2023-06-30 15:45:08,15.08835643,0.0001097,53.2188,356.9948,93.9286,266.1832,-3.5208e-05,-8.48e-06,0.0,0 STARLINK-4726,1 53802U 22111AF  23181.65635039 -.00000848  00000-0 -35208-4 0  9991,2 53802  53.2188 356.9948 0001097  93.9286 266.1832 15.08835643 44600,6917.894,95.438,540.518,539.0,0.0
53802.0,STARLINK-4726,PAYLOAD,2023-07-01 18:46:42,15.08841955,0.0001066,53.2175,351.937,86.5191,273.5923,4.7904e-05,4.75e-06,0.0,0 STARLINK-4726,1 53802U 22111AF  23182.78243125  .00000475  00000-0  47904-4 0  9997,2 53802  53.2175 351.9370 0001066  86.5191 273.5923 15.08841955 44773,6917.874,95.437,540.477,539.002,0.0
53802.0,STARLINK-4726,PAYLOAD,2023-07-03 10:31:20,15.08842219,0.0001107,53.218,344.5041,84.4598,275.6521,5.3317e-05,5.61e-06,0.0,0 STARLINK-4726,1 53802U 22111AF  23184.43843219  .00000561  00000-0  53317-4 0  9992,2 53802  53.2180 344.5041 0001107  84.4598 275.6521 15.08842219 45026,6917.874,95.437,540.504,538.973,0.0
53802.0,STARLINK-4726,PAYLOAD,2023-07-04 16:43:40,15.08839934,0.0001066,53.2181,338.8562,81.2311,278.8802,6.0261e-05,6.71e-06,0.0,0 STARLINK-4726,1 53802U 22111AF  23185.69699377  .00000671  00000-0  60261-4 0  9993,2 53802  53.2181 338.8562 0001066  81.2311 278.8802 15.08839934 45211,6917.881,95.438,540.483,539.008,0.0
53802.0,STARLINK-4726,PAYLOAD,2023-07-05 18:09:50,15.08843749,0.0001052,53.2187,334.0956,93.6189,266.4923,4.3893e-05,4.11e-06,0.0,0 STARLINK-4726,1 53802U 22111AF  23186.75683159  .00000411  00000-0  43893-4 0  9996,2 53802  53.2187 334.0956 0001052  93.6189 266.4923 15.08843749 45370,6917.869,95.437,540.462,539.006,0.0
53802.0,STARLINK-4726,PAYLOAD,2023-07-07 01:57:32,15.08842541,0.0001102,53.218,328.1497,75.7819,284.3296,5.5179e-05,5.91e-06,0.0,0 STARLINK-4726,1 53802U 22111AF  23188.08163189  .00000591  00000-0  55179-4 0  9999,2 53802  53.2180 328.1497 0001102  75.7819 284.3296 15.08842541 45577,6917.873,95.437,540.5,538.975,0.0
53802.0,STARLINK-4726,PAYLOAD,2023-07-08 08:09:52,15.08840167,0.0001015,53.218,322.5006,86.5444,273.5664,2.438e-05,1e-06,0.0,0 STARLINK-4726,1 53802U 22111AF  23189.34019602  .00000100  00000-0  24380-4 0  9995,2 53802  53.2180 322.5006 0001015  86.5444 273.5664 15.08840167 45760,6917.88,95.438,540.447,539.043,0.0
53802.0,STARLINK-4726,PAYLOAD,2023-07-09 12:46:49,15.08831034,0.0001041,53.2187,317.1497,103.1521,256.9588,1.1609e-05,-1.03e-06,0.0,0 STARLINK-4726,1 53802U 22111AF  23190.53252308 -.00000103  00000-0  11609-4 0  9994,2 53802  53.2187 317.1497 0001041 103.1521 256.9588 15.08831034 45945,6917.908,95.438,540.493,539.053,0.0
53802.0,STARLINK-4726,PAYLOAD,2023-07-10 01:29:54,15.08839988,9.65e-05,53.2174,314.7694,88.395,271.7152,3.115e-05,2.08e-06,0.0,0 STARLINK-4726,1 53802U 22111AF  23191.06243791  .00000208  00000-0  31150-4 0  9997,2 53802  53.2174 314.7694 0000965  88.3950 271.7152 15.08839988 46025,6917.88,95.438,540.413,539.078,0.0
53802.0,STARLINK-4726,PAYLOAD,2023-07-10 14:12:59,15.08826514,6.66e-05,53.217,312.3902,103.6137,256.4929,0.00033294,5.013e-05,0.0,0 STARLINK-4726,1 53802U 22111AF  23191.59236046  .00005013  00000-0  33294-3 0  9999,2 53802  53.2170 312.3902 0000666 103.6137 256.4929 15.08826514 46105,6917.922,95.438,540.247,539.326,0.0
53802.0,STARLINK-4726,PAYLOAD,2023-07-11 01:20:41,15.08841905,8.89e-05,53.2172,310.3076,87.1968,272.9126,1.3289e-05,-7.6e-07,0.0,0 STARLINK-4726,1 53802U 22111AF  23192.05603663 -.00000076  00000-0  13289-4 0  9992,2 53802  53.2172 310.3076 0000889  87.1968 272.9126 15.08841905 46172,6917.875,95.437,540.355,539.125,0.0
53802.0,STARLINK-4726,PAYLOAD,2023-07-11 07:42:14,15.08834666,9.82e-05,53.2171,309.1176,86.8649,273.2456,9.4069e-05,1.209e-05,0.0,0 STARLINK-4726,1 53802U 22111AF  23192.32100041  .00001209  00000-0  94069-4 0  9997,2 53802  53.2171 309.1176 0000982  86.8649 273.2456 15.08834666 46215,6917.897,95.438,540.441,539.082,0.0
53802.0,STARLINK-4726,PAYLOAD,2023-07-12 13:54:33,15.08846155,0.0001034,53.2181,303.4699,81.9799,278.1311,5.9695e-05,6.63e-06,0.0,0 STARLINK-4726,1 53802U 22111AF  23193.57955484  .00000663  00000-0  59695-4 0  9993,2 53802  53.2181 303.4699 0001034  81.9799 278.1311 15.08846155 46405,6917.862,95.437,540.442,539.011,0.0
53802.0,STARLINK-4726,PAYLOAD,2023-07-13 13:45:21,15.08838918,9.57e-05,53.2176,299.0085,86.3976,273.7126,2.3435e-05,8.5e-07,0.0,0 STARLINK-4726,1 53802U 22111AF  23194.57316007  .00000085  00000-0  23435-4 0  9997,2 53802  53.2176 299.0085 0000957  86.3976 273.7126 15.08838918 46556,6917.884,95.438,540.411,539.087,0.0
53802.0,STARLINK-4726,PAYLOAD,2023-07-14 23:08:25,15.08868454,0.0001152,53.2188,292.7654,100.8074,259.3048,-0.00027917,-4.732e-05,0.0,0 STARLINK-4726,1 53802U 22111AF  23195.96418815 -.00004732  00000-0 -27917-3 0  9994,2 53802  53.2188 292.7654 0001152 100.8074 259.3048 15.08868454 46764,6917.793,95.436,540.455,538.861,0.0
53802.0,STARLINK-4726,PAYLOAD,2023-07-15 11:51:32,15.0883387,0.0001359,53.2198,290.3872,112.869,247.2445,4.5649e-05,4.39e-06,0.0,0 STARLINK-4726,1 53802U 22111AF  23196.49412478  .00000439  00000-0  45649-4 0  9993,2 53802  53.2198 290.3872 0001359 112.8690 247.2445 15.08833870 46847,6917.899,95.438,540.704,538.824,0.0
53802.0,STARLINK-4726,PAYLOAD,2023-07-16 13:17:42,15.08838181,0.0001201,53.2183,285.6288,97.4599,262.653,-1.0047e-05,-4.48e-06,0.0,0 STARLINK-4726,1 53802U 22111AF  23197.55396841 -.00000448  00000-0 -10047-4 0  9992,2 53802  53.2183 285.6288 0001201  97.4599 262.6530 15.08838181 47006,6917.886,95.438,540.582,538.92,0.0
53802.0,STARLINK-4726,PAYLOAD,2023-07-17 13:08:29,15.08844,0.0001226,53.218,281.1681,86.2465,273.8667,0.00012487,1.7e-05,0.0,0 STARLINK-4726,1 53802U 22111AF  23198.54756291  .00001700  00000-0  12487-3 0  9990,2 53802  53.2180 281.1681 0001226  86.2465 273.8667 15.08844000 47154,6917.868,95.437,540.581,538.885,0.0
53802.0,STARLINK-4726,PAYLOAD,2023-07-18 09:48:30,15.08836128,0.0001205,53.2178,277.3024,87.0127,273.1003,7.2861e-05,8.72e-06,0.0,0 STARLINK-4726,1 53802U 22111AF  23199.40869034  .00000872  00000-0  72861-4 0  9998,2 53802  53.2178 277.3024 0001205  87.0127 273.1003 15.08836128 47283,6917.892,95.438,540.591,538.924,0.0
53802.0,STARLINK-4726,PAYLOAD,2023-07-19 09:39:18,15.08833825,0.0001364,53.2177,272.8429,68.9928,291.121,1.7374e-06,-2.6e-06,0.0,0 STARLINK-4726,1 53802U 22111AF  23200.40229668 -.00000260  00000-0  17374-5 0  9995,2 53802  53.2177 272.8429 0001364  68.9928 291.1210 15.08833825 47432,6917.899,95.438,540.708,538.821,0.0
53802.0,STARLINK-4726,PAYLOAD,2023-07-20 11:05:27,15.08844959,0.0001383,53.2179,268.0846,81.6471,278.4678,8.4644e-05,1.06e-05,0.0,0 STARLINK-4726,1 53802U 22111AF  23201.46212664  .00001060  00000-0  84644-4 0  9991,2 53802  53.2179 268.0846 0001383  81.6471 278.4678 15.08844959 47593,6917.865,95.437,540.687,538.773,0.0
53802.0,STARLINK-4726,PAYLOAD,2023-07-21 04:34:42,15.08841819,0.0001439,53.2187,264.815,83.6987,276.4169,6.5713e-05,7.58e-06,0.0,0 STARLINK-4726,1 53802U 22111AF  23202.19076923  .00000758  00000-0  65713-4 0  9997,2 53802  53.2187 264.8150 0001439  83.6987 276.4169 15.08841819 47708,6917.875,95.437,540.735,538.744,0.0
53802.0,STARLINK-4726,PAYLOAD,2023-07-24 04:07:04,15.08834789,0.0001305,53.2168,251.4305,93.9191,266.1951,2.4119e-05,9.6e-07,0.0,0 STARLINK-4726,1 53802U 22111AF  23205.17157536  .00000096  00000-0  24119-4 0  9998,2 53802  53.2168 251.4305 0001305  93.9191 266.1951 15.08834789 48966,6917.896,95.438,540.664,538.859,0.0
53802.0,STARLINK-4726,PAYLOAD,2023-07-25 10:19:23,15.08840254,0.0001189,53.2158,245.7801,88.7109,271.402,6.3146e-05,7.17e-06,0.0,0 STARLINK-4726,1 53802U 22111AF  23206.43013374  .00000717  00000-0  63146-4 0  9992,2 53802  53.2158 245.7801 0001189  88.7109 271.4020 15.08840254 49155,6917.88,95.438,540.567,538.922,0.0
53802.0,STARLINK-4726,PAYLOAD,2023-07-26 02:13:15,15.0883904,0.0001239,53.2157,242.8063,84.5046,275.6087,5.8488e-05,6.43e-06,0.0,0 STARLINK-4726,1 53802U 22111AF  23207.09253556  .00000643  00000-0  58488-4 0  9994,2 53802  53.2157 242.8063 0001239  84.5046 275.6087 15.08839040 49253,6917.883,95.438,540.605,538.891,0.0
53802.0,STARLINK-4726,PAYLOAD,2023-07-26 19:42:29,15.08845897,0.0001222,53.2157,239.5351,89.0177,271.0955,6.5032e-05,7.47e-06,0.0,0 STARLINK-4726,1 53802U 22111AF  23207.82117050  .00000747  00000-0  65032-4 0  9991,2 53802  53.2157 239.5351 0001222  89.0177 271.0955 15.08845897 49366,6917.862,95.437,540.573,538.882,0.0
53802.0,STARLINK-4726,PAYLOAD,2023-07-27 02:04:01,15.08843795,0.000127,53.2159,238.3459,88.6332,271.4806,4.7291e-05,4.65e-06,0.0,0 STARLINK-4726,1 53802U 22111AF  23208.08613167  .00000465  00000-0  47291-4 0  9994,2 53802  53.2159 238.3459 0001270  88.6332 271.4806 15.08843795 48593,6917.869,95.437,540.612,538.855,0.0
53802.0,STARLINK-4726,PAYLOAD,2023-07-27 08:25:34,15.08845063,0.0001275,53.2159,237.1565,88.2983,271.8155,5.4038e-05,5.72e-06,0.0,0 STARLINK-4726,1 53802U 22111AF  23208.35108990  .00000572  00000-0  54038-4 0  9993,2 53802  53.2159 237.1565 0001275  88.2983 271.8155 15.08845063 49447,6917.865,95.437,540.612,538.848,0.0
53802.0,STARLINK-4726,PAYLOAD,2023-07-27 19:33:16,15.08841302,0.0001194,53.2155,235.0742,93.5615,266.5513,3.4278e-05,2.58e-06,0.0,0 STARLINK-4726,1 53802U 22111AF  23208.81477137  .00000258  00000-0  34278-4 0  9991,2 53802  53.2155 235.0742 0001194  93.5615 266.5513 15.08841302 49517,6917.876,95.437,540.567,538.915,0.0
53802.0,STARLINK-4726,PAYLOAD,2023-07-28 01:54:49,15.08833756,0.0001274,53.2146,233.8867,75.6811,284.4323,-1.5365e-05,-5.32e-06,0.0,0 STARLINK-4726,1 53802U 22111AF  23209.07973825 -.00000532  00000-0 -15365-4 0  9998,2 53802  53.2146 233.8867 0001274  75.6811 284.4323 15.08833756 48745,6917.899,95.438,540.646,538.883,0.0
